[{"OBJECT_NAME":"TEVEL2-6","OBJECT_ID":"2025-052F","EPOCH":"2026-03-09T15:35:24.554400","MEAN_MOTION":15.30760889,"ECCENTRICITY":0.0004769,"INCLINATION":97.4016,"RA_OF_ASC_NODE":325.0381,"ARG_OF_PERICENTER":95.6604,"MEAN_ANOMALY":264.5181,"EPHEMERIS_TYPE":0,"CLASSIFICATION_TYPE":"U","NORAD_CAT_ID":63215,"ELEMENT_SET_NO":999,"REV_AT_EPOCH":5486,"BSTAR":0.00070909,"MEAN_MOTION_DOT":0.00021046,"MEAN_MOTION_DDOT":0},{"OBJECT_NAME":"STARLINK-35233","OBJECT_ID":"2025-212C","EPOCH":"2026-03-09T23:29:13.733088","MEAN_MOTION":15.30200663,"ECCENTRICITY":0.00010187,"INCLINATION":53.1597,"RA_OF_ASC_NODE":344.6283,"ARG_OF_PERICENTER":107.3573,"MEAN_ANOMALY":252.754,"EPHEMERIS_TYPE":0,"CLASSIFICATION_TYPE":"U","NORAD_CAT_ID":65678,"ELEMENT_SET_NO":999,"REV_AT_EPOCH":2729,"BSTAR":0.00052780847,"MEAN_MOTION_DOT":0.00015306,"MEAN_MOTION_DDOT":0}]
